IXPE                    
1 49954U 21121A   23263.09802458  .00006898  00000+0  54633-3 0  9994
2 49954   0.2289 240.2226 0010347 222.9036 256.9891 14.94744669 97247
